NORAD_CAT_ID,OBJECT_NAME,OBJECT_TYPE,EPOCH,MEAN_MOTION,ECCENTRICITY,INCLINATION,RA_OF_ASC_NODE,ARG_OF_PERICENTER,MEAN_ANOMALY,BSTAR,MEAN_MOTION_DOT,MEAN_MOTION_DDOT,TLE_LINE0,TLE_LINE1,TLE_LINE2,SEMIMAJOR_AXIS,PERIOD,APOGEE,PERIGEE,DECAYED
53548.0,STARLINK-4513,PAYLOAD,2022-11-21 00:51:04,15.08838021,0.0001378,53.2185,72.0136,67.4874,292.6264,4.6159e-05,4.47e-06,0.0,0 STARLINK-4513,1 53548U 22101X   22325.03547333  .00000447  00000-0  46159-4 0  9997,2 53548  53.2185  72.0136 0001378  67.4874 292.6264 15.08838021 14445,6917.886,95.438,540.705,538.798,0.0
53548.0,STARLINK-4513,PAYLOAD,2022-11-21 13:34:09,15.08847184,0.0001250999999999,53.2181,69.6332,67.5617,292.5508,7.0869e-05,8.400000000000001e-06,0.0,0 STARLINK-4513,1 53548U 22101X   22325.56538556  .00000840  00000-0  70869-4 0  9994,2 53548  53.2181  69.6332 0001251  67.5617 292.5508 15.08847184 14526,6917.858,95.437,540.589,538.8580000000002,0.0
53548.0,STARLINK-4513,PAYLOAD,2022-11-22 10:14:10,15.08842645,0.0001473,53.2204,65.7696,70.7237,289.3914,-6.9672e-06,-3.99e-06,0.0,0 STARLINK-4513,1 53548U 22101X   22326.42650921 -.00000399  00000-0 -69672-5 0  9993,2 53548  53.2204  65.7696 0001473  70.7237 289.3914 15.08842645 14658,6917.871999999999,95.437,540.756,538.7180000000002,0.0
53548.0,STARLINK-4513,PAYLOAD,2022-11-22 11:49:33,15.08840455,0.0001365,53.2196,65.4713,65.6197,294.4938,-2.1151e-05,-6.25e-06,0.0,0 STARLINK-4513,1 53548U 22101X   22326.49275074 -.00000625  00000-0 -21151-4 0  9993,2 53548  53.2196  65.4713 0001365  65.6197 294.4938 15.08840455 14664,6917.879,95.438,540.688,538.8,0.0
53548.0,STARLINK-4513,PAYLOAD,2022-11-23 13:15:44,15.08835465,0.0001329,53.2191,60.7134,63.6136,296.4992,-3.5216e-05,-8.48e-06,0.0,0 STARLINK-4513,1 53548U 22101X   22327.55259503 -.00000848  00000-0 -35216-4 0  9994,2 53548  53.2191  60.7134 0001329  63.6136 296.4992 15.08835465 14820,6917.894,95.438,540.679,538.84,0.0
53548.0,STARLINK-4513,PAYLOAD,2022-11-23 14:51:07,15.08835215,0.0001296999999999,53.2193,60.4162,61.292,298.8202,-5.249600000000002e-05,-1.123e-05,0.0,0 STARLINK-4513,1 53548U 22101X   22327.61883593 -.00001123  00000-0 -52496-4 0  9999,2 53548  53.2193  60.4162 0001297  61.2920 298.8202 15.08835215 14833,6917.895,95.438,540.6569999999998,538.863,0.0
53548.0,STARLINK-4513,PAYLOAD,2022-11-24 09:55:45,15.08835103,0.0001391,53.2196,56.8489,64.5287,295.5849,-5.5269e-05,-1.167e-05,0.0,0 STARLINK-4513,1 53548U 22101X   22328.41372027 -.00001167  00000-0 -55269-4 0  9992,2 53548  53.2196  56.8489 0001391  64.5287 295.5849 15.08835103 14954,6917.895,95.438,540.7230000000002,538.798,0.0
53548.0,STARLINK-4513,PAYLOAD,2022-11-24 11:31:08,15.088362699999998,0.0001429,53.2192,56.5514,64.1671,295.9468,-3.4971e-05,-8.44e-06,0.0,0 STARLINK-4513,1 53548U 22101X   22328.47995902 -.00000844  00000-0 -34971-4 0  9999,2 53548  53.2192  56.5514 0001429  64.1671 295.9468 15.08836270 14969,6917.892,95.438,540.745,538.768,0.0
53548.0,STARLINK-4513,PAYLOAD,2022-11-25 05:00:22,15.08722745,0.0002026,53.2196,53.2798,62.2119,297.9079,0.0015155,0.00023836,0.0,0 STARLINK-4513,1 53548U 22101X   22329.20859949  .00023836  00000-0  15155-2 0  9996,2 53548  53.2196  53.2798 0002026  62.2119 297.9079 15.08722745 15075,6918.239000000001,95.445,541.505,538.702,0.0
53548.0,STARLINK-4513,PAYLOAD,2022-11-25 09:46:32,15.08834544,0.0001515,53.2203,52.3883,69.35,290.7655,2.3091e-07,-2.84e-06,0.0,0 STARLINK-4513,1 53548U 22101X   22329.40732121 -.00000284  00000-0  23091-6 0  9995,2 53548  53.2203  52.3883 0001515  69.3500 290.7655 15.08834544 15109,6917.897,95.438,540.81,538.714,0.0
53548.0,STARLINK-4513,PAYLOAD,2022-11-25 12:57:18,15.08836434,0.000161,53.2221,51.7943,79.0421,281.0753,1.1379e-05,-1.07e-06,0.0,0 STARLINK-4513,1 53548U 22101X   22329.53980043 -.00000107  00000-0  11379-4 0  9995,2 53548  53.2221  51.7943 0001610  79.0421 281.0753 15.08836434 15129,6917.891,95.438,540.87,538.643,0.0
53548.0,STARLINK-4513,PAYLOAD,2022-11-26 11:12:40,15.08915521,0.0001373,53.2221,47.6315,75.4058,284.7087,-0.0007996,-0.00013017,0.0,0 STARLINK-4513,1 53548U 22101X   22330.46713683 -.00013017  00000-0 -79960-3 0  9997,2 53548  53.2221  47.6315 0001373  75.4058 284.7087 15.08915521 15268,6917.65,95.433,540.464,538.565,0.0
53548.0,STARLINK-4513,PAYLOAD,2022-11-26 14:23:28,15.08844042,0.000145,53.2202,47.0354,79.0685,281.047,0.0001014,1.326e-05,0.0,0 STARLINK-4513,1 53548U 22101X   22330.59963134  .00001326  00000-0  10140-3 0  9992,2 53548  53.2202  47.0354 0001450  79.0685 281.0470 15.08844042 15283,6917.868,95.437,540.736,538.73,0.0
53548.0,STARLINK-4513,PAYLOAD,2022-11-26 22:20:22,15.08872697,0.0001365,53.2203,45.5486,66.1985,293.915,-0.00024311,-4.158e-05,0.0,0 STARLINK-4513,1 53548U 22101X   22330.93082063 -.00004158  00000-0 -24311-3 0  9996,2 53548  53.2203  45.5486 0001365  66.1985 293.9150 15.08872697 15338,6917.78,95.435,540.59,538.701,0.0
53548.0,STARLINK-4513,PAYLOAD,2022-11-27 04:41:56,15.08856365,0.0002284,53.2192,44.3624,68.4648,291.6588,-8.1589e-05,-1.587e-05,0.0,0 STARLINK-4513,1 53548U 22101X   22331.19578992 -.00001587  00000-0 -81589-4 0  9990,2 53548  53.2192  44.3624 0002284  68.4648 291.6588 15.08856365 15376,6917.83,95.437,541.275,538.115,0.0
53548.0,STARLINK-4513,PAYLOAD,2022-11-27 11:03:30,15.08826356,0.0001189,53.22,43.1691,55.7376,304.3729,-4.0489e-05,-9.32e-06,0.0,0 STARLINK-4513,1 53548U 22101X   22331.46076522 -.00000932  00000-0 -40489-4 0  9999,2 53548  53.2200  43.1691 0001189  55.7376 304.3729 15.08826356 15418,6917.922,95.438,540.61,538.965,0.0
53548.0,STARLINK-4513,PAYLOAD,2022-11-27 14:14:16,15.08830389,0.0001547,53.2201,42.5746,65.2394,294.8759,-4.7634e-05,-1.046e-05,0.0,0 STARLINK-4513,1 53548U 22101X   22331.59324428 -.00001046  00000-0 -47634-4 0  9990,2 53548  53.2201  42.5746 0001547  65.2394 294.8759 15.08830389 15436,6917.91,95.438,540.845,538.705,0.0
53548.0,STARLINK-4513,PAYLOAD,2022-11-27 22:11:11,15.08838884,0.0001585999999999,53.2205,41.0876,61.8874,298.2278,-4.9062e-05,-1.069e-05,0.0,0 STARLINK-4513,1 53548U 22101X   22331.92443947 -.00001069  00000-0 -49062-4 0  9997,2 53548  53.2205  41.0876 0001586  61.8874 298.2278 15.08838884 15483,6917.884,95.438,540.846,538.6519999999998,0.0
53548.0,STARLINK-4513,PAYLOAD,2022-11-28 14:05:03,15.08835755,0.0001623,53.2208,38.1151,58.9001,301.215,-4.8864e-05,-1.066e-05,0.0,0 STARLINK-4513,1 53548U 22101X   22332.58684111 -.00001066  00000-0 -48864-4 0  9996,2 53548  53.2208  38.1151 0001623  58.9001 301.2150 15.08835755 15589,6917.893,95.438,540.881,538.636,0.0
53548.0,STARLINK-4513,PAYLOAD,2022-11-29 10:45:03,15.0884413,0.0001692,53.22,34.2509,56.5543,303.5611,5.3275e-05,5.6e-06,0.0,0 STARLINK-4513,1 53548U 22101X   22333.44795214  .00000560  00000-0  53275-4 0  9997,2 53548  53.2200  34.2509 0001692  56.5543 303.5611 15.08844130 15715,6917.868,95.437,540.903,538.562,0.0
53548.0,STARLINK-4513,PAYLOAD,2022-11-29 15:31:12,15.08836067,0.0001484,53.2196,33.3576,55.3037,304.8095,0.00011114,1.481e-05,0.0,0 STARLINK-4513,1 53548U 22101X   22333.64667542  .00001481  00000-0  11114-3 0  9999,2 53548  53.2196  33.3576 0001484  55.3037 304.8095 15.08836067 15740,6917.892,95.438,540.784,538.731,0.0
53548.0,STARLINK-4513,PAYLOAD,2022-11-30 10:35:50,15.08836552,0.0001652,53.2187,29.7899,56.9574,303.1577,-1.0429e-05,-4.54e-06,0.0,0 STARLINK-4513,1 53548U 22101X   22334.44156072 -.00000454  00000-0 -10429-4 0  9999,2 53548  53.2187  29.7899 0001652  56.9574 303.1577 15.08836552 15866,6917.891,95.438,540.899,538.613,0.0
53548.0,STARLINK-4513,PAYLOAD,2022-11-30 15:21:59,15.08845878,0.0001528,53.2198,28.8975,56.8524,303.2614,0.00016205,2.292e-05,0.0,0 STARLINK-4513,1 53548U 22101X   22334.64027029  .00002292  00000-0  16205-3 0  9997,2 53548  53.2198  28.8975 0001528  56.8524 303.2614 15.08845878 15896,6917.861999999999,95.437,540.784,538.67,0.0
53548.0,STARLINK-4513,PAYLOAD,2022-12-01 10:26:37,15.08844057,0.0001443,53.2202,25.3295,56.0898,304.0231,-3.1123e-05,-7.83e-06,0.0,0 STARLINK-4513,1 53548U 22101X   22335.43515651 -.00000783  00000-0 -31123-4 0  9990,2 53548  53.2202  25.3295 0001443  56.0898 304.0231 15.08844057 16018,6917.868,95.437,540.731,538.735,0.0
53548.0,STARLINK-4513,PAYLOAD,2022-12-01 15:12:47,15.08842171,0.000138,53.2206,24.4377,51.9632,308.1484,-3.8987e-05,-9.08e-06,0.0,0 STARLINK-4513,1 53548U 22101X   22335.63387762 -.00000908  00000-0 -38987-4 0  9996,2 53548  53.2206  24.4377 0001380  51.9632 308.1484 15.08842171 16046,6917.874,95.437,540.693,538.784,0.0
53548.0,STARLINK-4513,PAYLOAD,2022-12-01 19:58:56,15.08842127,0.0001378,53.2208,23.5455,50.8656,309.2459,-7.1524e-05,-1.426e-05,0.0,0 STARLINK-4513,1 53548U 22101X   22335.83259830 -.00001426  00000-0 -71524-4 0  9992,2 53548  53.2208  23.5455 0001378  50.8656 309.2459 15.08842127 16074,6917.874,95.437,540.692,538.786,0.0
53548.0,STARLINK-4513,PAYLOAD,2022-12-02 11:52:47,15.08847377,0.0001493,53.2197,20.5715,54.0151,306.0979,-2.6336e-05,-7.07e-06,0.0,0 STARLINK-4513,1 53548U 22101X   22336.49499512 -.00000707  00000-0 -26336-4 0  9990,2 53548  53.2197  20.5715 0001493  54.0151 306.0979 15.08847377 16176,6917.858,95.437,540.756,538.69,0.0
53548.0,STARLINK-4513,PAYLOAD,2022-12-02 19:49:43,15.08843655,0.0001513,53.2196,19.0847,54.0018,306.1115,-5.4883e-05,-1.161e-05,0.0,0 STARLINK-4513,1 53548U 22101X   22336.82619732 -.00001161  00000-0 -54883-4 0  9998,2 53548  53.2196  19.0847 0001513  54.0018 306.1115 15.08843655 16223,6917.869000000002,95.437,540.781,538.688,0.0
53548.0,STARLINK-4513,PAYLOAD,2022-12-03 03:46:39,15.08831503,0.0001508,53.2198,17.5981,54.8159,305.2974,-4.222e-05,-9.6e-06,0.0,0 STARLINK-4513,1 53548U 22101X   22337.15740557 -.00000960  00000-0 -42220-4 0  9993,2 53548  53.2198  17.5981 0001508  54.8159 305.2974 15.08831503 16272,6917.906,95.438,540.815,538.7280000000002,0.0
